NORAD_CAT_ID,OBJECT_NAME,OBJECT_TYPE,EPOCH,MEAN_MOTION,ECCENTRICITY,INCLINATION,RA_OF_ASC_NODE,ARG_OF_PERICENTER,MEAN_ANOMALY,BSTAR,MEAN_MOTION_DOT,MEAN_MOTION_DDOT,TLE_LINE0,TLE_LINE1,TLE_LINE2,SEMIMAJOR_AXIS,PERIOD,APOGEE,PERIGEE,DECAYED
51985.0,STARLINK-3651,PAYLOAD,2023-06-09 11:19:40,15.08842911,0.0001149,53.2158,227.237,95.2241,264.8882,7.8358e-05,9.6e-06,0.0,0 STARLINK-3651,1 51985U 22025AF  23160.47199404  .00000960  00000-0  78358-4 0  9999,2 51985  53.2158 227.2370 0001149  95.2241 264.8882 15.08842911 70548,6917.871,95.437,540.531,538.942,0.0
51985.0,STARLINK-3651,PAYLOAD,2023-06-09 20:51:59,15.0884015,0.0001085,53.2149,225.4538,85.2598,274.8518,2.5363e-05,1.16e-06,0.0,0 STARLINK-3651,1 51985U 22025AF  23160.86943732  .00000116  00000-0  25363-4 0  9994,2 51985  53.2149 225.4538 0001085  85.2598 274.8518 15.08840150 69512,6917.88,95.438,540.496,538.994,0.0
51985.0,STARLINK-3651,PAYLOAD,2023-06-10 04:48:55,15.08834734,0.0001002,53.216,223.9671,86.6883,273.4224,4.9504e-05,5e-06,0.0,0 STARLINK-3651,1 51985U 22025AF  23161.20064015  .00000500  00000-0  49504-4 0  9991,2 51985  53.2160 223.9671 0001002  86.6883 273.4224 15.08834734 70654,6917.896,95.438,540.455,539.068,0.0
51985.0,STARLINK-3651,PAYLOAD,2023-06-10 11:10:27,15.08835316,0.0001003,53.216,222.7774,88.2034,271.9073,4.6059e-05,4.45e-06,0.0,0 STARLINK-3651,1 51985U 22025AF  23161.46560046  .00000445  00000-0  46059-4 0  9994,2 51985  53.2160 222.7774 0001003  88.2034 271.9073 15.08835316 69607,6917.895,95.438,540.454,539.066,0.0
51985.0,STARLINK-3651,PAYLOAD,2023-06-10 20:42:46,15.08840818,9.53e-05,53.2162,220.9935,94.977,265.1331,-2.464e-06,-3.27e-06,0.0,0 STARLINK-3651,1 51985U 22025AF  23161.86303848 -.00000327  00000-0 -24640-5 0  9997,2 51985  53.2162 220.9935 0000953  94.9770 265.1331 15.08840818 69663,6917.878,95.438,540.402,539.084,0.0
51985.0,STARLINK-3651,PAYLOAD,2023-06-11 11:01:15,15.08836506,9.58e-05,53.2162,218.3172,92.9713,267.1389,2.912e-05,1.76e-06,0.0,0 STARLINK-3651,1 51985U 22025AF  23162.45920248  .00000176  00000-0  29120-4 0  9999,2 51985  53.2162 218.3172 0000958  92.9713 267.1389 15.08836506 70843,6917.891,95.438,540.419,539.093,0.0
51985.0,STARLINK-3651,PAYLOAD,2023-06-11 12:36:38,15.08842436,0.0001276,53.2161,218.0196,99.6397,260.4739,-3.4518e-05,-8.37e-06,0.0,0 STARLINK-3651,1 51985U 22025AF  23162.52544049 -.00000837  00000-0 -34518-4 0  9991,2 51985  53.2161 218.0196 0001276  99.6397 260.4739 15.08842436 69764,6917.873,95.437,540.621,538.855,0.0
51985.0,STARLINK-3651,PAYLOAD,2023-06-11 20:33:33,15.08837865,9.64e-05,53.2161,216.533,91.2659,268.8443,5.9712e-05,6.63e-06,0.0,0 STARLINK-3651,1 51985U 22025AF  23162.85664149  .00000663  00000-0  59712-4 0  9999,2 51985  53.2161 216.5330 0000964  91.2659 268.8443 15.08837865 69819,6917.887,95.438,540.419,539.085,0.0
51985.0,STARLINK-3651,PAYLOAD,2023-06-12 09:16:38,15.08841439,9.35e-05,53.2161,214.1537,96.1502,263.9597,0.00011178,1.492e-05,0.0,0 STARLINK-3651,1 51985U 22025AF  23163.38655859  .00001492  00000-0  11178-3 0  9990,2 51985  53.2161 214.1537 0000935  96.1502 263.9597 15.08841439 70989,6917.876,95.437,540.388,539.094,0.0
51985.0,STARLINK-3651,PAYLOAD,2023-06-12 10:52:01,15.08842195,9.33e-05,53.2161,213.8563,95.7515,264.3584,0.00011739,1.581e-05,0.0,0 STARLINK-3651,1 51985U 22025AF  23163.45279807  .00001581  00000-0  11739-3 0  9995,2 51985  53.2161 213.8563 0000933  95.7515 264.3584 15.08842195 69902,6917.874,95.437,540.384,539.093,0.0
51985.0,STARLINK-3651,PAYLOAD,2023-06-13 12:18:12,15.08836877,8.65e-05,53.2155,209.0975,85.6256,274.4835,2.7172e-05,1.45e-06,0.0,0 STARLINK-3651,1 51985U 22025AF  23164.51264516  .00000145  00000-0  27172-4 0  9998,2 51985  53.2155 209.0975 0000865  85.6256 274.4835 15.08836877 71154,6917.89,95.438,540.353,539.157,0.0
51985.0,STARLINK-3651,PAYLOAD,2023-06-13 20:15:08,15.08837747,8.8e-05,53.2155,207.6108,84.3504,275.7588,3.2472e-05,2.29e-06,0.0,0 STARLINK-3651,1 51985U 22025AF  23164.84384494  .00000229  00000-0  32472-4 0  9994,2 51985  53.2155 207.6108 0000880  84.3504 275.7588 15.08837747 70116,6917.887,95.438,540.361,539.144,0.0
51985.0,STARLINK-3651,PAYLOAD,2023-06-13 23:25:54,15.08837426,9.45e-05,53.2157,207.0156,84.6329,275.4771,3.6117e-05,2.87e-06,0.0,0 STARLINK-3651,1 51985U 22025AF  23164.97632544  .00000287  00000-0  36117-4 0  9994,2 51985  53.2157 207.0156 0000945  84.6329 275.4771 15.08837426 70132,6917.888,95.438,540.407,539.1,0.0
51985.0,STARLINK-3651,PAYLOAD,2023-06-14 20:05:55,15.0883965,9.09e-05,53.2159,203.1497,85.092,275.0176,6.6899e-05,7.77e-06,0.0,0 STARLINK-3651,1 51985U 22025AF  23165.83744342  .00000777  00000-0  66899-4 0  9994,2 51985  53.2159 203.1497 0000909  85.0920 275.0176 15.08839650 70261,6917.881,95.438,540.375,539.118,0.0
51985.0,STARLINK-3651,PAYLOAD,2023-06-14 23:16:41,15.08838453,9.4e-05,53.2157,202.5551,84.3524,275.7575,5.967e-05,6.62e-06,0.0,0 STARLINK-3651,1 51985U 22025AF  23165.96992469  .00000662  00000-0  59670-4 0  9995,2 51985  53.2157 202.5551 0000940  84.3524 275.7575 15.08838453 71373,6917.885,95.438,540.4,539.1,0.0
51985.0,STARLINK-3651,PAYLOAD,2023-06-15 11:59:46,15.08841348,9.59e-05,53.2157,200.1764,82.4748,277.6353,7.5252e-05,9.1e-06,0.0,0 STARLINK-3651,1 51985U 22025AF  23166.49984283  .00000910  00000-0  75252-4 0  9999,2 51985  53.2157 200.1764 0000959  82.4748 277.6353 15.08841348 70360,6917.876,95.437,540.405,539.078,0.0
51985.0,STARLINK-3651,PAYLOAD,2023-06-16 02:18:14,15.08840233,9.93e-05,53.2154,197.5001,81.3714,278.7391,5.9063e-05,6.52e-06,0.0,0 STARLINK-3651,1 51985U 22025AF  23167.09600404  .00000652  00000-0  59063-4 0  9991,2 51985  53.2154 197.5001 0000993  81.3714 278.7391 15.08840233 71546,6917.88,95.438,540.432,539.058,0.0
51985.0,STARLINK-3651,PAYLOAD,2023-06-16 08:39:47,15.08843159,9.37e-05,53.2156,196.31,85.0279,275.082,7.7667e-05,9.49e-06,0.0,0 STARLINK-3651,1 51985U 22025AF  23167.36096139  .00000949  00000-0  77667-4 0  9994,2 51985  53.2156 196.3100 0000937  85.0279 275.0820 15.08843159 70490,6917.871,95.437,540.384,539.088,0.0
51985.0,STARLINK-3651,PAYLOAD,2023-06-17 08:30:34,15.08837606,9.46e-05,53.2156,191.8496,84.2445,275.8655,1.3153e-05,-7.8e-07,0.0,0 STARLINK-3651,1 51985U 22025AF  23168.35456627 -.00000078  00000-0  13153-4 0  9990,2 51985  53.2156 191.8496 0000946  84.2445 275.8655 15.08837606 71736,6917.888,95.438,540.407,539.098,0.0
51985.0,STARLINK-3651,PAYLOAD,2023-06-17 11:41:20,15.08837967,9.39e-05,53.2158,191.2554,83.5,276.6099,3.5476e-06,-2.31e-06,0.0,0 STARLINK-3651,1 51985U 22025AF  23168.48704644 -.00000231  00000-0  35476-5 0  9993,2 51985  53.2158 191.2554 0000939  83.5000 276.6099 15.08837967 70660,6917.887,95.438,540.401,539.102,0.0
51985.0,STARLINK-3651,PAYLOAD,2023-06-17 18:02:53,15.08835696,9.31e-05,53.2156,190.0657,81.896,278.2138,-1.1318e-05,-4.68e-06,0.0,0 STARLINK-3651,1 51985U 22025AF  23168.75200860 -.00000468  00000-0 -11318-4 0  9995,2 51985  53.2156 190.0657 0000931  81.8960 278.2138 15.08835696 70701,6917.894,95.438,540.403,539.114,0.0
51985.0,STARLINK-3651,PAYLOAD,2023-06-18 01:59:49,15.08832322,9.44e-05,53.2157,188.5791,83.1227,276.9873,-1.7502e-05,-5.66e-06,0.0,0 STARLINK-3651,1 51985U 22025AF  23169.08321203 -.00000566  00000-0 -17502-4 0  9997,2 51985  53.2157 188.5791 0000944  83.1227 276.9873 15.08832322 71848,6917.904,95.438,540.422,539.116,0.0
51985.0,STARLINK-3651,PAYLOAD,2023-06-18 05:10:35,15.08833048,9.45e-05,53.2157,187.9844,83.0749,277.0351,-1.1577e-05,-4.72e-06,0.0,0 STARLINK-3651,1 51985U 22025AF  23169.21569199 -.00000472  00000-0 -11577-4 0  9992,2 51985  53.2157 187.9844 0000945  83.0749 277.0351 15.08833048 70779,6917.902,95.438,540.42,539.113,0.0
51985.0,STARLINK-3651,PAYLOAD,2023-06-18 17:53:40,15.08835574,9.51e-05,53.2159,185.6054,80.0483,280.0617,3.2017e-06,-2.37e-06,0.0,0 STARLINK-3651,1 51985U 22025AF  23169.74561144 -.00000237  00000-0  32017-5 0  9993,2 51985  53.2159 185.6054 0000951  80.0483 280.0617 15.08835574 70852,6917.894,95.438,540.417,539.101,0.0
51985.0,STARLINK-3651,PAYLOAD,2023-06-19 08:12:08,15.08836533,9.36e-05,53.2158,182.9295,83.3212,276.7887,6.217e-05,7.02e-06,0.0,0 STARLINK-3651,1 51985U 22025AF  23170.34177074  .00000702  00000-0  62170-4 0  9994,2 51985  53.2158 182.9295 0000936  83.3212 276.7887 15.08836533 72036,6917.891,95.438,540.404,539.108,0.0
51985.0,STARLINK-3651,PAYLOAD,2023-06-19 09:47:32,15.08836379,9.32e-05,53.2158,182.6322,83.1634,276.9464,6.038e-05,6.73e-06,0.0,0 STARLINK-3651,1 51985U 22025AF  23170.40801118  .00000673  00000-0  60380-4 0  9992,2 51985  53.2158 182.6322 0000932  83.1634 276.9464 15.08836379 70956,6917.891,95.438,540.401,539.112,0.0
51985.0,STARLINK-3651,PAYLOAD,2023-06-19 17:44:27,15.08837574,9.28e-05,53.2158,181.1455,82.6612,277.4485,6.8279e-05,7.99e-06,0.0,0 STARLINK-3651,1 51985U 22025AF  23170.73921084  .00000799  00000-0  68279-4 0  9997,2 51985  53.2158 181.1455 0000928  82.6612 277.4485 15.08837574 71006,6917.888,95.438,540.395,539.111,0.0
51985.0,STARLINK-3651,PAYLOAD,2023-06-20 00:06:00,15.08838202,9.21e-05,53.2158,179.956,85.2756,274.8341,0.00010056,1.313e-05,0.0,0 STARLINK-3651,1 51985U 22025AF  23171.00416989  .00001313  00000-0  10056-3 0  9993,2 51985  53.2158 179.9560 0000921  85.2756 274.8341 15.08838202 71044,6917.886,95.438,540.388,539.114,0.0
51985.0,STARLINK-3651,PAYLOAD,2023-06-20 22:21:24,15.08841884,9.32e-05,53.2158,175.7929,82.5185,277.5913,7.0603e-05,8.36e-06,0.0,0 STARLINK-3651,1 51985U 22025AF  23171.93152899  .00000836  00000-0  70603-4 0  9996,2 51985  53.2158 175.7929 0000932  82.5185 277.5913 15.08841884 72276,6917.875,95.437,540.384,539.095,0.0
51985.0,STARLINK-3651,PAYLOAD,2023-06-21 09:29:05,15.08844364,9.64e-05,53.2157,173.7113,82.0555,278.0547,6.9238e-05,8.14e-06,0.0,0 STARLINK-3651,1 51985U 22025AF  23172.39520695  .00000814  00000-0  69238-4 0  9998,2 51985  53.2157 173.7113 0000964  82.0555 278.0547 15.08844364 71251,6917.867,95.437,540.399,539.065,0.0
